OBJECT_NAME,OBJECT_ID,EPOCH,MEAN_MOTION,ECCENTRICITY,INCLINATION,RA_OF_ASC_NODE,ARG_OF_PERICENTER,MEAN_ANOMALY,EPHEMERIS_TYPE,CLASSIFICATION_TYPE,NORAD_CAT_ID,ELEMENT_SET_NO,REV_AT_EPOCH,BSTAR,MEAN_MOTION_DOT,MEAN_MOTION_DDOT
ONEWEB-0368,2021-090R,2026-06-13T19:17:24.857952,13.20769956,.00015137,87.9184,275.1255,81.4837,278.6468,0,U,49294,999,23053,-.43820152E-4,-.5E-7,0
ONEWEB-0369,2021-090S,2026-06-14T03:34:59.366208,13.19724465,.0001786,87.9165,305.5794,97.3717,262.7619,0,U,49295,999,22601,-.1368E-3,-.42E-6,0
ONEWEB-0370,2021-090T,2026-06-13T18:19:14.284992,13.20770410,.00021472,87.9192,275.1224,106.1310,254.0059,0,U,49296,999,22941,-.19039469E-3,-.64E-6,0
ONEWEB-0371,2021-090U,2026-06-14T01:57:10.560672,13.19724376,.0001828,87.9172,305.5849,101.4946,258.6392,0,U,49297,999,22604,-.16373E-3,-.53E-6,0
ONEWEB-0372,2021-090V,2026-06-14T04:59:01.895712,13.20771310,.0001942,87.9194,275.0354,101.2786,258.8565,0,U,49298,999,22944,.46542E-4,.32E-6,0
ONEWEB-0373,2021-090W,2026-06-14T00:08:20.146272,13.20771350,.0002068,87.9191,275.0761,100.3753,259.7614,0,U,49299,999,23060,-.33732E-4,-.1E-7,0
ONEWEB-0374,2021-090X,2026-06-13T20:17:45.635712,13.14503222,.00022116,87.8963,290.3633,86.0911,274.0471,0,U,49300,999,22712,-.49317546E-3,-.17E-5,0
ONEWEB-0375,2021-090Y,2026-06-13T23:51:22.401792,13.20771161,.0002357,87.9191,275.0701,88.4086,271.7317,0,U,49301,999,23010,-.14424E-3,-.46E-6,0
ONEWEB-0376,2021-090Z,2026-06-14T01:54:54.127296,13.19725114,.0001661,87.9173,305.5852,100.2859,259.8461,0,U,49302,999,22604,-.11947E-3,-.35E-6,0
ONEWEB-0377,2021-090AA,2026-06-13T18:04:52.771584,13.20785119,.00022156,87.9192,275.1200,98.2054,261.9330,0,U,49303,999,23006,.33677424E-2,.1383E-4,0
ONEWEB-0378,2021-090AB,2026-06-14T00:01:15.192192,13.20769968,.0001975,87.9188,275.0758,96.1583,263.9776,0,U,49304,999,22936,-.27098E-4,.2E-7,0
ONEWEB-0379,2021-090AC,2026-06-13T20:10:54.134112,13.14502928,.00019163,87.8963,290.3751,96.2650,263.8698,0,U,49305,999,22712,-.53995689E-3,-.187E-5,0
ONEWEB-0380,2021-090AD,2026-06-14T03:39:32.558688,13.19724647,.0002054,87.9166,305.5761,97.3505,262.7861,0,U,49306,999,22602,-.61591E-4,-.12E-6,0
ONEWEB-0381,2021-090AE,2026-06-14T01:16:13.107072,13.20772126,.0002096,87.9195,275.0649,93.5069,266.6304,0,U,49307,999,22941,.14368E-3,.71E-6,0
ONEWEB-0382,2021-090AF,2026-06-13T19:29:32.129088,13.20769329,.00020479,87.9188,275.1072,92.3811,267.7556,0,U,49308,999,22937,-.11005677E-3,-.32E-6,0
ONEWEB-0383,2021-090AG,2026-06-14T01:30:34.643808,13.14501052,.000187,87.8966,290.3220,95.1516,264.9827,0,U,49309,999,22718,-.59564E-3,-.208E-5,0
ONEWEB-0384,2021-090AH,2026-06-14T04:18:46.272672,13.20811770,.0001995,87.9194,275.0777,86.6515,273.4846,0,U,49310,999,22943,.16834E-3,.81E-6,0
ONEWEB-0385,2021-090AJ,2026-06-13T19:19:51.550464,13.20772397,.00020167,87.9192,275.1139,94.4818,265.6546,0,U,49311,999,22935,.22385554E-4,.22E-6,0
ONEWEB-0386,2021-090AK,2026-06-14T01:11:22.299360,13.20771063,.0001969,87.9196,275.0559,92.8790,267.2569,0,U,49312,999,22940,-.60577E-4,-.12E-6,0
ONEWEB-0387,2021-090AL,2026-06-13T19:22:17.033376,13.20771951,.00023216,87.9183,275.1270,97.1267,263.0130,0,U,49313,999,22937,.3312276E-5,.14E-6,0
ONEWEB-0388,2021-090AM,2026-06-14T03:32:43.147104,13.19724757,.0001865,87.9167,305.5751,93.7678,266.3668,0,U,49314,999,22601,-.75446E-4,-.17E-6,0
ONEWEB-0389,2021-132A,2026-06-14T02:02:52.836000,13.17648476,.0002172,87.9135,6.4852,82.7547,277.3831,0,U,50469,999,21767,.1503E-3,.71E-6,0
ONEWEB-0390,2021-132B,2026-06-14T02:05:18.616992,13.17648593,.000195,87.9134,6.4858,94.1645,265.9709,0,U,50470,999,21767,.12053E-3,.6E-6,0
ONEWEB-0391,2021-132C,2026-06-14T02:07:44.518080,13.17648444,.0002692,87.9136,6.4951,87.5462,272.5977,0,U,50471,999,21767,.28766E-4,.24E-6,0
ONEWEB-0392,2021-132D,2026-06-14T02:51:29.553984,13.17648571,.0002259,87.9143,6.4572,84.1733,275.9656,0,U,50472,999,21771,-.59434E-4,-.1E-6,0
ONEWEB-0393,2021-132E,2026-06-14T02:16:14.873376,13.17649719,.000202,87.9137,6.4793,85.3148,274.8214,0,U,50473,999,21770,-.55639E-4,-.9E-7,0
ONEWEB-0394,2021-132F,2026-06-13T23:41:32.967168,13.18673133,.0001902,87.9171,336.0787,87.3163,272.8187,0,U,50474,999,22117,.15795E-2,.636E-5,0
ONEWEB-0395,2021-132G,2026-06-14T02:45:51.196032,13.11419264,.0002009,87.8887,21.6790,89.3150,270.8208,0,U,50475,999,21531,.64659E-3,.242E-5,0
ONEWEB-0396,2021-132H,2026-06-13T23:31:48.541152,13.18684607,.0001952,87.9168,336.0927,87.7869,272.3486,0,U,50476,999,22121,.11546E-3,.58E-6,0
ONEWEB-0397,2021-132J,2026-06-13T23:53:39.949728,13.18684858,.0001882,87.9168,336.0896,84.2122,275.9225,0,U,50477,999,22119,-.23375E-4,.4E-7,0
ONEWEB-0398,2021-132K,2026-06-14T01:59:26.524032,13.11414727,.0001909,87.8890,21.6756,94.6219,265.5127,0,U,50478,999,21520,-.10021E-2,-.342E-5,0
ONEWEB-0399,2021-132L,2026-06-14T03:29:47.940000,13.11413912,.0002191,87.8896,21.6739,75.8223,284.3148,0,U,50479,999,21520,.15105E-3,.66E-6,0
ONEWEB-0400,2021-132M,2026-06-13T23:22:06.389184,13.18685066,.000192,87.9169,336.0840,97.5969,262.5382,0,U,50480,999,22118,-.11112E-3,-.31E-6,0
ONEWEB-0401,2021-132N,2026-06-13T22:38:23.716320,13.18685207,.000165,87.9170,336.0870,87.0308,273.1013,0,U,50481,999,22118,-.22588E-4,.4E-7,0
ONEWEB-0402,2021-132P,2026-06-13T23:34:15.341664,13.18685222,.0001582,87.9168,336.0687,78.9910,281.1400,0,U,50482,999,22121,.23774E-5,.14E-6,0
ONEWEB-0403,2021-132Q,2026-06-14T00:10:39.635616,13.18684497,.0001974,87.9168,336.0878,90.4710,269.6648,0,U,50483,999,22117,-.12103E-3,-.35E-6,0
ONEWEB-0404,2021-132R,2026-06-14T03:02:57.179616,13.11417286,.0002166,87.8891,21.6763,83.8280,276.3094,0,U,50484,999,21529,.14941E-2,.542E-5,0
ONEWEB-0405,2021-132S,2026-06-13T22:40:50.082240,13.18686937,.0001955,87.9173,336.0847,105.6549,254.4799,0,U,50485,999,22156,-.28409E-4,.2E-7,0
ONEWEB-0406,2021-132T,2026-06-14T00:17:56.848128,13.18685074,.0002344,87.9165,336.0879,87.2089,272.9311,0,U,50486,999,22120,.96588E-4,.51E-6,0
ONEWEB-0407,2021-132U,2026-06-14T00:08:14.664192,13.18684862,.0001634,87.9169,336.0812,94.8593,265.2726,0,U,50487,999,22114,-.47367E-4,-.6E-7,0
ONEWEB-0409,2021-132V,2026-06-14T03:00:29.974752,13.11418476,.000212,87.8895,21.6647,86.8251,273.3120,0,U,50488,999,21518,.15137E-2,.549E-5,0
ONEWEB-0412,2021-132W,2026-06-13T23:51:13.982112,13.18684904,.0001646,87.9166,336.0922,83.6313,276.5007,0,U,50489,999,22123,-.56484E-4,-.9E-7,0
ONEWEB-0413,2021-132X,2026-06-13T23:58:33.295872,13.18672195,.0001839,87.9157,336.0918,95.2825,264.8517,0,U,50490,999,22117,-.29043E-2,-.1132E-4,0
ONEWEB-0414,2021-132Y,2026-06-13T23:36:40.447008,13.18684630,.0001835,87.9168,336.0746,86.4043,273.7299,0,U,50491,999,22120,.12305E-3,.61E-6,0
ONEWEB-0417,2021-132Z,2026-06-13T23:48:48.720384,13.18684811,.0002073,87.9159,336.0928,91.2753,268.8616,0,U,50492,999,22118,-.10042E-4,.9E-7,0
ONEWEB-0418,2021-132AA,2026-06-14T00:03:09.724032,13.18700098,.000218,87.9171,336.0900,89.9349,270.2033,0,U,50493,999,22124,-.21544E-3,-.72E-6,0
ONEWEB-0419,2021-132AB,2026-06-13T22:40:37.854048,13.18665852,.0002087,87.9169,336.1010,97.2011,262.9358,0,U,50494,999,22115,-.25814E-4,.3E-7,0
ONEWEB-0420,2021-132AC,2026-06-13T23:39:05.765760,13.18685548,.0001654,87.9161,336.0964,95.3914,264.7407,0,U,50495,999,22115,.97411E-4,.51E-6,0
ONEWEB-0421,2021-132AD,2026-06-13T23:29:22.990848,13.18684305,.0001838,87.9165,336.0951,80.6772,279.4568,0,U,50496,999,22119,.10781E-3,.55E-6,0
ONEWEB-0424,2021-132AE,2026-06-13T22:33:32.542272,13.18685372,.0002036,87.9168,336.1008,101.2896,258.8465,0,U,50497,999,22121,.316E-6,.13E-6,0
ONEWEB-0426,2021-132AF,2026-06-14T04:51:05.622624,13.18688467,.0002343,87.9168,336.0398,77.9359,282.2036,0,U,50498,999,22119,-.61168E-5,.11E-6,0
ONEWEB-0427,2021-132AG,2026-06-13T22:31:06.895200,13.18685229,.0002031,87.9170,336.0808,90.1072,270.0293,0,U,50499,999,22118,-.47254E-4,-.6E-7,0
ONEWEB-0429,2021-132AH,2026-06-14T00:00:57.159648,13.18685248,.0001709,87.9162,336.0932,93.1790,266.9537,0,U,50500,999,22116,.15873E-4,.19E-6,0
ONEWEB-0430,2021-132AJ,2026-06-13T23:43:57.107424,13.18685836,.000174,87.9162,336.0939,100.6206,259.5122,0,U,50501,999,22120,.1511E-3,.72E-6,0
ONEWEB-0432,2021-132AK,2026-06-14T04:19:47.970912,13.17155221,.0002112,87.9170,336.0317,109.1480,250.9880,0,U,50502,999,22118,-.1039E-3,-.27E-6,0
ONEWEB-0440,2021-132AL,2026-06-14T00:13:05.306016,13.18684986,.0001585,87.9169,336.0856,84.4481,275.6832,0,U,50503,999,22115,.27848E-4,.24E-6,0
ONEWEB-0450,2021-132AM,2026-06-14T00:03:35.080704,13.18685626,.0001653,87.9159,336.0925,95.6265,264.5056,0,U,50504,999,22118,.84657E-5,.16E-6,0
ONEWEB-0410,2022-012A,2026-06-14T02:29:36.675744,13.17648390,.0003101,87.9146,6.4701,76.5930,283.5547,0,U,51622,999,21329,-.58989E-4,-.1E-6,0
ONEWEB-0411,2022-012B,2026-06-14T04:30:23.279616,13.10369357,.0001648,87.8839,36.8640,100.7172,259.4141,0,U,51623,999,20889,.36028E-3,.138E-5,0
ONEWEB-0415,2022-012C,2026-06-14T04:25:37.032096,13.10369926,.0001809,87.8835,36.8637,90.9873,269.1461,0,U,51624,999,20889,.10131E-2,.366E-5,0
ONEWEB-0416,2022-012D,2026-06-14T04:42:20.498112,13.10370401,.000206,87.8829,36.8794,94.6366,265.4997,0,U,51625,999,20893,-.77884E-3,-.259E-5,0
ONEWEB-0422,2022-012E,2026-06-14T02:44:11.884416,13.17648613,.000124,87.9144,6.4693,82.4431,277.6841,0,U,51626,999,21340,-.72138E-4,-.15E-6,0
ONEWEB-0423,2022-012F,2026-06-14T02:34:28.853760,13.17650216,.0001925,87.9138,6.4764,84.4099,275.7252,0,U,51627,999,21329,-.66297E-4,-.13E-6,0
ONEWEB-0425,2022-012G,2026-06-14T03:06:43.322976,13.10372848,.0002086,87.8834,36.8759,77.7938,282.3423,0,U,51628,999,20892,-.17283E-2,-.591E-5,0
ONEWEB-0428,2022-012H,2026-06-14T04:28:00.050880,13.10369794,.0001766,87.8831,36.8720,81.6989,278.4338,0,U,51629,999,20889,.59041E-3,.219E-5,0
ONEWEB-0431,2022-012J,2026-06-14T03:44:46.521600,13.10376855,.0001505,87.8839,36.8706,100.7964,259.3333,0,U,51630,999,20894,.55991E-3,.208E-5,0
ONEWEB-0434,2022-012K,2026-06-14T03:11:41.682912,13.10372730,.0002337,87.8839,36.9000,72.7189,287.4194,0,U,51631,999,20892,-.17208E-2,-.588E-5,0
